ONEWEB-0549             
1 56051U 23043F   24189.58693808  .00000067  00000+0  13127-3 0  9999
2 56051  87.9277  25.2399 0001830  82.6032 277.5310 13.21824848 64480
ONEWEB-0550             
1 56052U 23043G   24189.49862429  .00000074  00000+0  14719-3 0  9993
2 56052  87.9273  25.2644 0002028  87.1303 273.0063 13.21824961 64472
ONEWEB-0551             
1 56053U 23043H   24189.54035959 -.00000095  00000+0 -28602-3 0  9991
2 56053  87.9023  40.4533 0001833  76.3558 283.7776 13.15549237 63096
ONEWEB-0552             
1 56054U 23043J   24189.49231373  .00000094  00000+0  19488-3 0  9993
2 56054  87.9273  25.2755 0002140  81.6532 278.4845 13.21827445 64472
ONEWEB-0553             
1 56055U 23043K   24189.52230951 -.00000009  00000+0 -56714-4 0  9991
2 56055  87.9099  10.0609 0001585 100.4416 259.6893 13.16592593 65597
ONEWEB-0554             
1 56056U 23043L   24189.58565158  .00000082  00000+0  18016-3 0  9999
2 56056  87.9102  10.0703 0002506  91.8228 268.3189 13.16596525 65589
ONEWEB-0555             
1 56057U 23043M   24189.54765119 -.00000209  00000+0 -58037-3 0  9995
2 56057  87.9099  10.0493 0001831 112.7559 247.3765 13.16593914 65587
ONEWEB-0557             
1 56058U 23043N   24189.48590186 -.00000144  00000+0 -41031-3 0  9993
2 56058  87.9098  10.0869 0002308 117.2158 242.9209 13.16593996 65572
